{"type":"FeatureCollection","features":[{"type":"Feature","properties":{"OBJECTID":44,"NAME":"Lilian Baylis Technology","POSTCODE":"SE11 5QY","ACADEMY":" ","ADDRESS_1":"323 Kennington Lane","UPRN":10008785986,"EASTING":530783,"NORTHING":178022,"OBJECTID_1":44,"CLASS":"Secondary School"},"geometry":{"type":"Point","coordinates":[-0.11781137421258414,51.4860348256525]}},{"type":"Feature","properties":{"OBJECTID":86,"NAME":"Vauxhall","POSTCODE":"SE11 5LG","ACADEMY":" ","ADDRESS_1":"Vauxhall Street","UPRN":100000000000,"EASTING":530782,"NORTHING":178344,"OBJECTID_1":86,"CLASS":"Primary School"},"geometry":{"type":"Point","coordinates":[-0.11770659942989332,51.48892875085055]}},{"type":"Feature","properties":{"OBJECTID":41,"NAME":"Lambeth Academy","POSTCODE":"SW4 9ET","ACADEMY":"yes","ADDRESS_1":"Elms Road","UPRN":10008794029,"EASTING":529326,"NORTHING":174800,"OBJECTID_1":41,"CLASS":"Secondary School"},"geometry":{"type":"Point","coordinates":[-0.13996168688203797,51.45741422923757]}},{"type":"Feature","properties":{"OBJECTID":54,"NAME":"Paxton","POSTCODE":"SE19 1PA","ACADEMY":" ","ADDRESS_1":"Woodland Road","UPRN":100000000000,"EASTING":533512,"NORTHING":170963,"OBJECTID_1":54,"CLASS":"Primary School"},"geometry":{"type":"Point","coordinates":[-0.08119276868123006,51.42196215929397]}},{"type":"Feature","properties":{"OBJECTID":70,"NAME":"St Leonard's C.E.","POSTCODE":"SW16 6NP","ACADEMY":" ","ADDRESS_1":"42 Mitcham Lane","UPRN":100000000000,"EASTING":529710,"NORTHING":171434,"OBJECTID_1":70,"CLASS":"Primary School"},"geometry":{"type":"Point","coordinates":[-0.13567008586587184,51.4270769344366]}},{"type":"Feature","properties":{"OBJECTID":28,"NAME":"Hill Mead","POSTCODE":"SW9 8UE","ACADEMY":" ","ADDRESS_1":"Moorland Road","UPRN":200000000000,"EASTING":531580,"NORTHING":175364,"OBJECTID_1":28,"CLASS":"Primary School"},"geometry":{"type":"Point","coordinates":[-0.10732836498049866,51.46196376284728]}},{"type":"Feature","properties":{"OBJECTID":49,"NAME":"Michael Tippett","POSTCODE":"SE24 0HZ","ACADEMY":" ","ADDRESS_1":"Heron Road","UPRN":100000000000,"EASTING":532044,"NORTHING":175325,"OBJECTID_1":49,"CLASS":"Special School"},"geometry":{"type":"Point","coordinates":[-0.10066768598955958,51.46150533183466]}},{"type":"Feature","properties":{"OBJECTID":76,"NAME":"St Stephen's C.E.","POSTCODE":"SW8 1EJ","ACADEMY":" ","ADDRESS_1":"Dorset Road","UPRN":200000000000,"EASTING":530488,"NORTHING":177314,"OBJECTID_1":76,"CLASS":"Primary School"},"geometry":{"type":"Point","coordinates":[-0.1223189708796165,51.4797403524093]}},{"type":"Feature","properties":{"OBJECTID":58,"NAME":"Rosendale","POSTCODE":"SE21 8LR","ACADEMY":" ","ADDRESS_1":"Rosendale Road","UPRN":10090194699,"EASTING":532266,"NORTHING":173633,"OBJECTID_1":58,"CLASS":"Primary School"},"geometry":{"type":"Point","coordinates":[-0.0981060475203034,51.446248260801994]}},{"type":"Feature","properties":{"OBJECTID":25,"NAME":"Henry Cavendish (Balham)","POSTCODE":"SW12 0JA","ACADEMY":" ","ADDRESS_1":"Hydethorpe Road","UPRN":200000000000,"EASTING":529164,"NORTHING":173386,"OBJECTID_1":25,"CLASS":"Primary School"},"geometry":{"type":"Point","coordinates":[-0.14280783025388213,51.4447438291761]}},{"type":"Feature","properties":{"OBJECTID":24,"NAME":"Heathbrook","POSTCODE":"SW8 3EH","ACADEMY":" ","ADDRESS_1":"St Rule Street","UPRN":100000000000,"EASTING":529067,"NORTHING":176207,"OBJECTID_1":24,"CLASS":"Primary School"},"geometry":{"type":"Point","coordinates":[-0.1431742661995568,51.47011770425673]}},{"type":"Feature","properties":{"OBJECTID":62,"NAME":"St Bede's R.C.","POSTCODE":"SW12 0LF","ACADEMY":" ","ADDRESS_1":"Thornton Road","UPRN":200000000000,"EASTING":529666,"NORTHING":173374,"OBJECTID_1":62,"CLASS":"Primary School"},"geometry":{"type":"Point","coordinates":[-0.13559288541785922,51.44452138767554]}},{"type":"Feature","properties":{"OBJECTID":55,"NAME":"Platanos College","POSTCODE":"SW9 0AL","ACADEMY":"yes","ADDRESS_1":"Clapham Road","UPRN":200000000000,"EASTING":530679,"NORTHING":176586,"OBJECTID_1":55,"CLASS":"Secondary School"},"geometry":{"type":"Point","coordinates":[-0.11983913732836243,51.473154016029696]}},{"type":"Feature","properties":{"OBJECTID":31,"NAME":"Immanuel & St Andrew's C.E.","POSTCODE":"SW16 5SL","ACADEMY":" ","ADDRESS_1":"Buckleigh Road","UPRN":200000000000,"EASTING":530019,"NORTHING":170581,"OBJECTID_1":31,"CLASS":"Primary School"},"geometry":{"type":"Point","coordinates":[-0.13154071964782826,51.419340455155066]}},{"type":"Feature","properties":{"OBJECTID":42,"NAME":"Lansdowne","POSTCODE":"SW9 9QL","ACADEMY":" ","ADDRESS_1":"Argyll Close, Dalyell Road","UPRN":100000000000,"EASTING":530681,"NORTHING":175912,"OBJECTID_1":42,"CLASS":"Special School"},"geometry":{"type":"Point","coordinates":[-0.12005935569798273,51.46709654179392]}},{"type":"Feature","properties":{"OBJECTID":5,"NAME":"Aurora House","POSTCODE":"SE1 8AZ","ACADEMY":" ","ADDRESS_1":"30 Wootton Street","UPRN":10090197051,"EASTING":531432,"NORTHING":180032,"OBJECTID_1":5,"CLASS":"Special School"},"geometry":{"type":"Point","coordinates":[-0.10772182424874079,51.50394750628069]}},{"type":"Feature","properties":{"OBJECTID":36,"NAME":"Kennington Park Academy","POSTCODE":"SE11 4AX","ACADEMY":"yes","ADDRESS_1":"20 Kennington Park Gardens","UPRN":10090195483,"EASTING":531575,"NORTHING":177686,"OBJECTID_1":36,"CLASS":"Secondary School"},"geometry":{"type":"Point","coordinates":[-0.10653648655144332,51.48283179816669]}},{"type":"Feature","properties":{"OBJECTID":8,"NAME":"Christ Church (Brixton) C.E.","POSTCODE":"SW9 6HN","ACADEMY":" ","ADDRESS_1":"Cancell Road","UPRN":100000000000,"EASTING":531482,"NORTHING":176949,"OBJECTID_1":8,"CLASS":"Primary School"},"geometry":{"type":"Point","coordinates":[-0.10814911591301095,51.47623028856931]}},{"type":"Feature","properties":{"OBJECTID":32,"NAME":"Iqra","POSTCODE":"SW4 9PA","ACADEMY":" ","ADDRESS_1":"Park Hill","UPRN":200000000000,"EASTING":530021,"NORTHING":174576,"OBJECTID_1":32,"CLASS":"Primary School"},"geometry":{"type":"Point","coordinates":[-0.13004631898135124,51.45524215157486]}},{"type":"Feature","properties":{"OBJECTID":69,"NAME":"St Jude's C.E.","POSTCODE":"SE24 0EL","ACADEMY":" ","ADDRESS_1":"Regent Road","UPRN":200000000000,"EASTING":531761,"NORTHING":174518,"OBJECTID_1":69,"CLASS":"Primary School"},"geometry":{"type":"Point","coordinates":[-0.10503935227600258,51.45431902747873]}},{"type":"Feature","properties":{"OBJECTID":89,"NAME":"Wyvil","POSTCODE":"SW8 2TJ","ACADEMY":" ","ADDRESS_1":"Wyvil Road","UPRN":100000000000,"EASTING":530264,"NORTHING":177481,"OBJECTID_1":89,"CLASS":"Primary School"},"geometry":{"type":"Point","coordinates":[-0.12548125563923376,51.48129270830012]}},{"type":"Feature","properties":{"OBJECTID":80,"NAME":"Sunnyhill","POSTCODE":"SW16 2UW","ACADEMY":" ","ADDRESS_1":"Sunnyhill Road","UPRN":100000000000,"EASTING":530786,"NORTHING":171686,"OBJECTID_1":80,"CLASS":"Primary School"},"geometry":{"type":"Point","coordinates":[-0.12010911212578615,51.429094527955534]}},{"type":"Feature","properties":{"OBJECTID":16,"NAME":"Durand Academy","POSTCODE":"SW9 0RD","ACADEMY":"yes","ADDRESS_1":"Hackford Road","UPRN":100000000000,"EASTING":530959,"NORTHING":176734,"OBJECTID_1":17,"CLASS":"Secondary School"},"geometry":{"type":"Point","coordinates":[-0.11575515770619454,51.47441935890275]}},{"type":"Feature","properties":{"OBJECTID":13,"NAME":"Crown Lane","POSTCODE":"SW16 3HX","ACADEMY":" ","ADDRESS_1":"Crown Lane","UPRN":200000000000,"EASTING":531573,"NORTHING":171076,"OBJECTID_1":13,"CLASS":"Primary School"},"geometry":{"type":"Point","coordinates":[-0.10902150230052524,51.42343064387514]}},{"type":"Feature","properties":{"OBJECTID":33,"NAME":"Jessop","POSTCODE":"SE24 0BJ","ACADEMY":" ","ADDRESS_1":"Lowden Road","UPRN":200000000000,"EASTING":532000,"NORTHING":175160,"OBJECTID_1":33,"CLASS":"Primary School"},"geometry":{"type":"Point","coordinates":[-0.10136221432930684,51.460032798731206]}},{"type":"Feature","properties":{"OBJECTID":20,"NAME":"Evelyn Grace Academy","POSTCODE":"SE24 0PZ","ACADEMY":"yes","ADDRESS_1":"Shakespeare Road","UPRN":10023851851,"EASTING":531845,"NORTHING":175245,"OBJECTID_1":20,"CLASS":"Secondary School"},"geometry":{"type":"Point","coordinates":[-0.10356032987018093,51.460832749619655]}},{"type":"Feature","properties":{"OBJECTID":39,"NAME":"Kingswood Primary (Upper)","POSTCODE":"SE27 9RD","ACADEMY":" ","ADDRESS_1":"188 Gipsy Road","UPRN":100000000000,"EASTING":532880,"NORTHING":171495,"OBJECTID_1":39,"CLASS":"Primary School"},"geometry":{"type":"Point","coordinates":[-0.09007755889724374,51.42689139623397]}},{"type":"Feature","properties":{"OBJECTID":57,"NAME":"Richard Atkins","POSTCODE":"SW2 4JP","ACADEMY":" ","ADDRESS_1":"New Park Road","UPRN":200000000000,"EASTING":530256,"NORTHING":173786,"OBJECTID_1":57,"CLASS":"Primary School"},"geometry":{"type":"Point","coordinates":[-0.12695658543711202,51.448088667382635]}},{"type":"Feature","properties":{"OBJECTID":11,"NAME":"Clapham Manor","POSTCODE":"SW4 0BZ","ACADEMY":" ","ADDRESS_1":"Belmont Road","UPRN":200000000000,"EASTING":529473,"NORTHING":175582,"OBJECTID_1":11,"CLASS":"Primary School"},"geometry":{"type":"Point","coordinates":[-0.13756099838572572,51.464408314925436]}},{"type":"Feature","properties":{"OBJECTID":6,"NAME":"Bishop Thomas Grant R.C.","POSTCODE":"SW16 2HY","ACADEMY":" ","ADDRESS_1":"Bell Trees Grove","UPRN":200000000000,"EASTING":530893,"NORTHING":171230,"OBJECTID_1":6,"CLASS":"Secondary School"},"geometry":{"type":"Point","coordinates":[-0.11873918751710696,51.42497189901466]}},{"type":"Feature","properties":{"OBJECTID":29,"NAME":"Hitherfield","POSTCODE":"SW16 2JQ","ACADEMY":" ","ADDRESS_1":"Hitherfield Road","UPRN":200000000000,"EASTING":531070,"NORTHING":172524,"OBJECTID_1":29,"CLASS":"Primary School"},"geometry":{"type":"Point","coordinates":[-0.11571646755578473,51.43655982907049]}},{"type":"Feature","properties":{"OBJECTID":66,"NAME":"St Helen's R.C.","POSTCODE":"SW9 0TQ","ACADEMY":" ","ADDRESS_1":"Knowle Close","UPRN":200000000000,"EASTING":531142,"NORTHING":175926,"OBJECTID_1":66,"CLASS":"Primary School"},"geometry":{"type":"Point","coordinates":[-0.11342130200778329,51.467115811974736]}},{"type":"Feature","properties":{"OBJECTID":34,"NAME":"Jubilee","POSTCODE":"SW2 2JE","ACADEMY":" ","ADDRESS_1":"Tulse Hill","UPRN":10000445340,"EASTING":531152,"NORTHING":174290,"OBJECTID_1":34,"CLASS":"Primary School"},"geometry":{"type":"Point","coordinates":[-0.11388363314953744,51.452411339000015]}},{"type":"Feature","properties":{"OBJECTID":27,"NAME":"Herbert Morrison","POSTCODE":"SW8 2HP","ACADEMY":" ","ADDRESS_1":"Hartington Road","UPRN":200000000000,"EASTING":530243,"NORTHING":177187,"OBJECTID_1":27,"CLASS":"Primary School"},"geometry":{"type":"Point","coordinates":[-0.1258918098691545,51.47865545549941]}},{"type":"Feature","properties":{"OBJECTID":61,"NAME":"St Anne's R.C.","POSTCODE":"SE11 5JA","ACADEMY":" ","ADDRESS_1":"6 Durham Street","UPRN":100000000000,"EASTING":530677,"NORTHING":177973,"OBJECTID_1":61,"CLASS":"Primary School"},"geometry":{"type":"Point","coordinates":[-0.11935525493517181,51.48561896082909]}},{"type":"Feature","properties":{"OBJECTID":60,"NAME":"St Andrew's R.C.","POSTCODE":"SW16 2ET","ACADEMY":" ","ADDRESS_1":"Polworth Road","UPRN":200000000000,"EASTING":530283,"NORTHING":171148,"OBJECTID_1":60,"CLASS":"Primary School"},"geometry":{"type":"Point","coordinates":[-0.12753796909579845,51.42437540333521]}},{"type":"Feature","properties":{"OBJECTID":77,"NAME":"Stockwell","POSTCODE":"SW9 9TG","ACADEMY":" ","ADDRESS_1":"Stockwell Road","UPRN":100000000000,"EASTING":530821,"NORTHING":175861,"OBJECTID_1":77,"CLASS":"Primary School"},"geometry":{"type":"Point","coordinates":[-0.1180638902581402,51.466605906013676]}},{"type":"Feature","properties":{"OBJECTID":26,"NAME":"Henry Fawcett","POSTCODE":"SE11 5BZ","ACADEMY":" ","ADDRESS_1":"Bowling Green Street","UPRN":200000000000,"EASTING":531198,"NORTHING":177885,"OBJECTID_1":26,"CLASS":"Primary School"},"geometry":{"type":"Point","coordinates":[-0.11188874759693293,51.484707627149824]}},{"type":"Feature","properties":{"OBJECTID":3,"NAME":"Archbishop Tenison's C.E.","POSTCODE":"SE11 5SR","ACADEMY":" ","ADDRESS_1":"55 Kennington Oval","UPRN":200000000000,"EASTING":530917,"NORTHING":177631,"OBJECTID_1":3,"CLASS":"Secondary School"},"geometry":{"type":"Point","coordinates":[-0.11602741040450469,51.48249008048619]}},{"type":"Feature","properties":{"OBJECTID":15,"NAME":"Dunraven","POSTCODE":" ","ACADEMY":"yes","ADDRESS_1":"94-98 Leigham Court Road","UPRN":100000000000,"EASTING":530782,"NORTHING":172108,"OBJECTID_1":15,"CLASS":"Primary School"},"geometry":{"type":"Point","coordinates":[-0.12001094627187936,51.43288784902234]}},{"type":"Feature","properties":{"OBJECTID":82,"NAME":"The Elmgreen","POSTCODE":"SE27 9BZ","ACADEMY":" ","ADDRESS_1":"Elmcourt Road","UPRN":200000000000,"EASTING":531984,"NORTHING":172792,"OBJECTID_1":82,"CLASS":"Secondary School"},"geometry":{"type":"Point","coordinates":[-0.10247487715588295,51.438756245366406]}},{"type":"Feature","properties":{"OBJECTID":75,"NAME":"St Saviour's C.E.","POSTCODE":"SE24 0AY","ACADEMY":" ","ADDRESS_1":"Herne Hill Road","UPRN":200000000000,"EASTING":532228,"NORTHING":175575,"OBJECTID_1":75,"CLASS":"Primary School"},"geometry":{"type":"Point","coordinates":[-0.09792723190736585,51.463709058570196]}},{"type":"Feature","properties":{"OBJECTID":65,"NAME":"St Gabriel's College (Dennen site)","POSTCODE":"SE5 9RF","ACADEMY":" ","ADDRESS_1":"Cormont Road","UPRN":200000000000,"EASTING":531654,"NORTHING":176671,"OBJECTID_1":65,"CLASS":"Secondary School"},"geometry":{"type":"Point","coordinates":[-0.10577739570221133,51.47369205417896]}},{"type":"Feature","properties":{"OBJECTID":21,"NAME":"Fenstanton","POSTCODE":"SW2 3PW","ACADEMY":" ","ADDRESS_1":"Abbots Park","UPRN":200000000000,"EASTING":531197,"NORTHING":173160,"OBJECTID_1":21,"CLASS":"Primary School"},"geometry":{"type":"Point","coordinates":[-0.11365494090962613,51.44224598925954]}},{"type":"Feature","properties":{"OBJECTID":10,"NAME":"City Heights E-ACT Academy","POSTCODE":"SW2 3PW","ACADEMY":"yes","ADDRESS_1":"33 Abbots Park","UPRN":10091118097,"EASTING":531232,"NORTHING":173155,"OBJECTID_1":10,"CLASS":"Secondary School"},"geometry":{"type":"Point","coordinates":[-0.11315348694588344,51.44219295538159]}},{"type":"Feature","properties":{"OBJECTID":18,"NAME":"Elm Court","POSTCODE":"SW2 2EF","ACADEMY":" ","ADDRESS_1":"Elm Park","UPRN":200000000000,"EASTING":530936,"NORTHING":173802,"OBJECTID_1":18,"CLASS":"Special School"},"geometry":{"type":"Point","coordinates":[-0.11717087428671763,51.44807578316895]}},{"type":"Feature","properties":{"OBJECTID":51,"NAME":"Oasis Academy Johanna","POSTCODE":"SE1 7RH","ACADEMY":"yes","ADDRESS_1":"Johanna Street","UPRN":100000000000,"EASTING":531185,"NORTHING":179665,"OBJECTID_1":51,"CLASS":"Primary School"},"geometry":{"type":"Point","coordinates":[-0.11141487394919894,51.50070676772246]}},{"type":"Feature","properties":{"OBJECTID":30,"NAME":"Holy Trinity C.E.","POSTCODE":"SW2 2RL","ACADEMY":" ","ADDRESS_1":"Upper Tulse Hill","UPRN":200000000000,"EASTING":530854,"NORTHING":173742,"OBJECTID_1":30,"CLASS":"Primary School"},"geometry":{"type":"Point","coordinates":[-0.11837236855289697,51.44755551767873]}},{"type":"Feature","properties":{"OBJECTID":79,"NAME":"Sudbourne","POSTCODE":"SW2 5AP","ACADEMY":" ","ADDRESS_1":"Hayter Road","UPRN":100000000000,"EASTING":530757,"NORTHING":174948,"OBJECTID_1":79,"CLASS":"Primary School"},"geometry":{"type":"Point","coordinates":[-0.11932205530269836,51.45841585023837]}},{"type":"Feature","properties":{"OBJECTID":4,"NAME":"Ashmole","POSTCODE":"SW8 1NT","ACADEMY":" ","ADDRESS_1":"Ashmole Street","UPRN":100000000000,"EASTING":530994,"NORTHING":177580,"OBJECTID_1":4,"CLASS":"Primary School"},"geometry":{"type":"Point","coordinates":[-0.11493806127523007,51.48201395139267]}},{"type":"Feature","properties":{"OBJECTID":72,"NAME":"St Mark's C.E.","POSTCODE":"SE11 5SL","ACADEMY":" ","ADDRESS_1":"Harleyford Road","UPRN":200000000000,"EASTING":530822,"NORTHING":177860,"OBJECTID_1":72,"CLASS":"Primary School"},"geometry":{"type":"Point","coordinates":[-0.1173099745266588,51.48456997985114]}},{"type":"Feature","properties":{"OBJECTID":23,"NAME":"Granton","POSTCODE":"SW16 5AN","ACADEMY":" ","ADDRESS_1":"Granton Road","UPRN":100000000000,"EASTING":529288,"NORTHING":170025,"OBJECTID_1":23,"CLASS":"Primary School"},"geometry":{"type":"Point","coordinates":[-0.14225012297585207,51.414510795480545]}},{"type":"Feature","properties":{"OBJECTID":46,"NAME":"London Nautical","POSTCODE":"SE1 9NA","ACADEMY":" ","ADDRESS_1":"61 Stamford Street","UPRN":100000000000,"EASTING":531385,"NORTHING":180308,"OBJECTID_1":46,"CLASS":"Secondary School"},"geometry":{"type":"Point","coordinates":[-0.1082958818947687,51.506438712444336]}},{"type":"Feature","properties":{"OBJECTID":1,"NAME":"Allen Edwards","POSTCODE":"SW4 6RP","ACADEMY":" ","ADDRESS_1":"Studley Road, Larkhall Lane","UPRN":200000000000,"EASTING":530145,"NORTHING":176488,"OBJECTID_1":1,"CLASS":"Primary School"},"geometry":{"type":"Point","coordinates":[-0.12755945390541334,51.47239628912187]}},{"type":"Feature","properties":{"OBJECTID":83,"NAME":"The Park Campus","POSTCODE":"SE27 9TG","ACADEMY":" ","ADDRESS_1":"Gipsy Road","UPRN":10090196375,"EASTING":532328,"NORTHING":171637,"OBJECTID_1":83,"CLASS":"Secondary School"},"geometry":{"type":"Point","coordinates":[-0.09795968370852837,51.42829653600298]}},{"type":"Feature","properties":{"OBJECTID":73,"NAME":"St Martin-in-the-Fields C of E","POSTCODE":"SW2 3UP","ACADEMY":"yes","ADDRESS_1":"155 Tulse Hill","UPRN":100000000000,"EASTING":531466,"NORTHING":173379,"OBJECTID_1":73,"CLASS":"Secondary School"},"geometry":{"type":"Point","coordinates":[-0.10970541530454189,51.44415175295587]}},{"type":"Feature","properties":{"OBJECTID":2,"NAME":"Archbishop Sumner C.E.","POSTCODE":"SE11 4PH","ACADEMY":" ","ADDRESS_1":"Reedworth Street","UPRN":200000000000,"EASTING":531312,"NORTHING":178654,"OBJECTID_1":2,"CLASS":"Primary School"},"geometry":{"type":"Point","coordinates":[-0.10996212519042625,51.49159188014166]}},{"type":"Feature","properties":{"OBJECTID":68,"NAME":"St John's The Divine C.E.","POSTCODE":"SE5 0SX","ACADEMY":" ","ADDRESS_1":"Warham Street","UPRN":0,"EASTING":531779,"NORTHING":177268,"OBJECTID_1":68,"CLASS":"Primary School"},"geometry":{"type":"Point","coordinates":[-0.10375616233167317,51.47902796463053]}},{"type":"Feature","properties":{"OBJECTID":56,"NAME":"Reay","POSTCODE":"SW9 0EN","ACADEMY":" ","ADDRESS_1":"Hackford Road","UPRN":100000000000,"EASTING":530997,"NORTHING":177078,"OBJECTID_1":56,"CLASS":"Primary School"},"geometry":{"type":"Point","coordinates":[-0.11508089082734202,51.477501971297066]}},{"type":"Feature","properties":{"OBJECTID":37,"NAME":"King's Avenue","POSTCODE":"SW4 8BQ","ACADEMY":" ","ADDRESS_1":"King's Avenue","UPRN":100000000000,"EASTING":530026,"NORTHING":174783,"OBJECTID_1":37,"CLASS":"Primary School"},"geometry":{"type":"Point","coordinates":[-0.12989836894866702,51.45710125924915]}},{"type":"Feature","properties":{"OBJECTID":50,"NAME":"Norwood","POSTCODE":"SE19 3NY","ACADEMY":" ","ADDRESS_1":"Crown Dale","UPRN":200000000000,"EASTING":532224,"NORTHING":171065,"OBJECTID_1":50,"CLASS":"Secondary School"},"geometry":{"type":"Point","coordinates":[-0.09966802060006373,51.423180437302655]}},{"type":"Feature","properties":{"OBJECTID":48,"NAME":"Macaulay C.E.","POSTCODE":"SW4 0NU","ACADEMY":" ","ADDRESS_1":"Victoria Rise","UPRN":200000000000,"EASTING":528789,"NORTHING":175481,"OBJECTID_1":48,"CLASS":"Primary School"},"geometry":{"type":"Point","coordinates":[-0.14743873885966785,51.463656561790586]}},{"type":"Feature","properties":{"OBJECTID":85,"NAME":"Turney","POSTCODE":"SE21 8LX","ACADEMY":" ","ADDRESS_1":"Turney Road","UPRN":100000000000,"EASTING":532284,"NORTHING":173718,"OBJECTID_1":85,"CLASS":"Special School"},"geometry":{"type":"Point","coordinates":[-0.09781543985825153,51.44700792046991]}},{"type":"Feature","properties":{"OBJECTID":64,"NAME":"St Gabriel's College (Brooke site)","POSTCODE":"SW9 6UL","ACADEMY":" ","ADDRESS_1":"Langton Road","UPRN":200000000000,"EASTING":531881,"NORTHING":176931,"OBJECTID_1":64,"CLASS":"Secondary School"},"geometry":{"type":"Point","coordinates":[-0.10241391093373134,51.475975743714685]}},{"type":"Feature","properties":{"OBJECTID":87,"NAME":"Walnut Tree Walk","POSTCODE":"SE11 6DS","ACADEMY":" ","ADDRESS_1":"Walnut Tree Walk","UPRN":100000000000,"EASTING":531067,"NORTHING":178910,"OBJECTID_1":87,"CLASS":"Primary School"},"geometry":{"type":"Point","coordinates":[-0.11339408955258212,51.493949241512624]}},{"type":"Feature","properties":{"OBJECTID":53,"NAME":"Orchard","POSTCODE":"SW2 3ET","ACADEMY":" ","ADDRESS_1":"Christchurch Road","UPRN":200000000000,"EASTING":530568,"NORTHING":173476,"OBJECTID_1":53,"CLASS":"Primary School"},"geometry":{"type":"Point","coordinates":[-0.12258364437752896,51.44523100242561]}},{"type":"Feature","properties":{"OBJECTID":12,"NAME":"Corpus Christi R.C. (Academy)","POSTCODE":"SW2 5BL","ACADEMY":"yes","ADDRESS_1":"13-14 Trent Road","UPRN":200000000000,"EASTING":530689,"NORTHING":174628,"OBJECTID_1":12,"CLASS":"Primary School"},"geometry":{"type":"Point","coordinates":[-0.12041839276521382,51.45555579818625]}},{"type":"Feature","properties":{"OBJECTID":59,"NAME":"St Andrew's C.E.","POSTCODE":"SW9 9DE","ACADEMY":" ","ADDRESS_1":"Kay Road","UPRN":200000000000,"EASTING":530509,"NORTHING":176083,"OBJECTID_1":59,"CLASS":"Primary School"},"geometry":{"type":"Point","coordinates":[-0.12247101885380389,51.46867291973013]}},{"type":"Feature","properties":{"OBJECTID":88,"NAME":"Woodmansterne","POSTCODE":"SW16 5XE","ACADEMY":" ","ADDRESS_1":"Stockport Road","UPRN":100000000000,"EASTING":529734,"NORTHING":169815,"OBJECTID_1":88,"CLASS":"Primary School"},"geometry":{"type":"Point","coordinates":[-0.13591712910225745,51.41252177807062]}},{"type":"Feature","properties":{"OBJECTID":19,"NAME":"Elm Wood","POSTCODE":"SE27 9RR","ACADEMY":" ","ADDRESS_1":"Carnac Street","UPRN":100000000000,"EASTING":532733,"NORTHING":172061,"OBJECTID_1":19,"CLASS":"Primary School"},"geometry":{"type":"Point","coordinates":[-0.09197882111997775,51.43201221910801]}},{"type":"Feature","properties":{"OBJECTID":17,"NAME":"Durand Academy","POSTCODE":"SW9 0RD","ACADEMY":"yes","ADDRESS_1":"Hackford Road","UPRN":100000000000,"EASTING":530946,"NORTHING":176760,"OBJECTID_1":16,"CLASS":"Primary School"},"geometry":{"type":"Point","coordinates":[-0.11593260446328489,51.47465601768925]}},{"type":"Feature","properties":{"OBJECTID":52,"NAME":"Oasis Academy South Bank","POSTCODE":"SE1 7HS","ACADEMY":"yes","ADDRESS_1":"75 Westminster Bridge Road","UPRN":10091119897,"EASTING":531168,"NORTHING":179417,"OBJECTID_1":52,"CLASS":"Secondary School"},"geometry":{"type":"Point","coordinates":[-0.11175176676307588,51.49848203800927]}},{"type":"Feature","properties":{"OBJECTID":7,"NAME":"Bonneville","POSTCODE":"SW4 9LB","ACADEMY":" ","ADDRESS_1":"Bonneville Gardens","UPRN":100000000000,"EASTING":529358,"NORTHING":174325,"OBJECTID_1":7,"CLASS":"Primary School"},"geometry":{"type":"Point","coordinates":[-0.13967491677072066,51.45313819989108]}},{"type":"Feature","properties":{"OBJECTID":63,"NAME":"St Bernadette R.C.","POSTCODE":"SW12 0AB","ACADEMY":" ","ADDRESS_1":"Atkins Road","UPRN":200000000000,"EASTING":529155,"NORTHING":173649,"OBJECTID_1":63,"CLASS":"Primary School"},"geometry":{"type":"Point","coordinates":[-0.1428413690317103,51.44710941353953]}},{"type":"Feature","properties":{"OBJECTID":45,"NAME":"Livity","POSTCODE":"SW16 2PW","ACADEMY":" ","ADDRESS_1":"35A Adare Walk","UPRN":10090203456,"EASTING":530513,"NORTHING":172519,"OBJECTID_1":45,"CLASS":"Special School"},"geometry":{"type":"Point","coordinates":[-0.12372710991574436,51.43664336768463]}},{"type":"Feature","properties":{"OBJECTID":14,"NAME":"Dunraven","POSTCODE":"SW16 2QB","ACADEMY":"yes","ADDRESS_1":"94-98 Leigham Court Road","UPRN":100000000000,"EASTING":530798,"NORTHING":172133,"OBJECTID_1":14,"CLASS":"Secondary School"},"geometry":{"type":"Point","coordinates":[-0.11977168533067392,51.43310882720403]}},{"type":"Feature","properties":{"OBJECTID":47,"NAME":"Loughborough","POSTCODE":"SW9 7UA","ACADEMY":" ","ADDRESS_1":"Minet Road","UPRN":200000000000,"EASTING":531716,"NORTHING":176212,"OBJECTID_1":47,"CLASS":"Primary School"},"geometry":{"type":"Point","coordinates":[-0.10505614504717721,51.46955279410253]}},{"type":"Feature","properties":{"OBJECTID":9,"NAME":"Christ Church (Streatham) C.E.","POSTCODE":"SW2 3NF","ACADEMY":" ","ADDRESS_1":"Cotherstone Road","UPRN":200000000000,"EASTING":530643,"NORTHING":173424,"OBJECTID_1":9,"CLASS":"Primary School"},"geometry":{"type":"Point","coordinates":[-0.12152423323965234,51.44474641391198]}},{"type":"Feature","properties":{"OBJECTID":71,"NAME":"St Luke's C.E.","POSTCODE":"SE27 0DZ","ACADEMY":" ","ADDRESS_1":"Linton Grove","UPRN":200000000000,"EASTING":532197,"NORTHING":171468,"OBJECTID_1":71,"CLASS":"Primary School"},"geometry":{"type":"Point","coordinates":[-0.0999059016857846,51.42680834216106]}},{"type":"Feature","properties":{"OBJECTID":78,"NAME":"Streatham Wells","POSTCODE":"SW2 3NJ","ACADEMY":" ","ADDRESS_1":"50 Palace Road","UPRN":100000000000,"EASTING":531067,"NORTHING":172913,"OBJECTID_1":78,"CLASS":"Primary School"},"geometry":{"type":"Point","coordinates":[-0.11561573228917033,51.440056346039356]}},{"type":"Feature","properties":{"OBJECTID":38,"NAME":"Kings College London Maths School","POSTCODE":"SE11 6SP","ACADEMY":" ","ADDRESS_1":"5 Lambeth Walk","UPRN":0,"EASTING":531181,"NORTHING":179120,"OBJECTID_1":38,"CLASS":"Secondary School"},"geometry":{"type":"Point","coordinates":[-0.11167490826567747,51.49581000953716]}},{"type":"Feature","properties":{"OBJECTID":22,"NAME":"Glenbrook","POSTCODE":"SW4 8LD","ACADEMY":" ","ADDRESS_1":"Clarence Avenue","UPRN":100000000000,"EASTING":529881,"NORTHING":174323,"OBJECTID_1":22,"CLASS":"Primary School"},"geometry":{"type":"Point","coordinates":[-0.13215294426644483,51.453000607784354]}},{"type":"Feature","properties":{"OBJECTID":67,"NAME":"St John's Primary School","POSTCODE":"SW9 7HH","ACADEMY":" ","ADDRESS_1":"85 Angell Road","UPRN":10093378222,"EASTING":531466,"NORTHING":176026,"OBJECTID_1":67,"CLASS":"Primary School"},"geometry":{"type":"Point","coordinates":[-0.10872244444492117,51.46793936807648]}},{"type":"Feature","properties":{"OBJECTID":43,"NAME":"Lark Hall","POSTCODE":"SW4 6PH","ACADEMY":" ","ADDRESS_1":"Smedley Street","UPRN":10000444684,"EASTING":530014,"NORTHING":176274,"OBJECTID_1":43,"CLASS":"Primary School"},"geometry":{"type":"Point","coordinates":[-0.12952317583887252,51.470503221503286]}},{"type":"Feature","properties":{"OBJECTID":74,"NAME":"St Mary's R.C.","POSTCODE":"SW4 9QJ","ACADEMY":" ","ADDRESS_1":"Crescent Lane","UPRN":200000000000,"EASTING":529435,"NORTHING":175007,"OBJECTID_1":74,"CLASS":"Primary School"},"geometry":{"type":"Point","coordinates":[-0.13831801443186195,51.45924960447169]}},{"type":"Feature","properties":{"OBJECTID":40,"NAME":"La Retraite R.C.","POSTCODE":"SW12 0AB","ACADEMY":" ","ADDRESS_1":"Aitkins Road","UPRN":200000000000,"EASTING":529018,"NORTHING":173735,"OBJECTID_1":40,"CLASS":"Secondary School"},"geometry":{"type":"Point","coordinates":[-0.14478037071540684,51.447913479328186]}},{"type":"Feature","properties":{"OBJECTID":84,"NAME":"Trinity Academy","POSTCODE":"SW2 1QS","ACADEMY":"yes","ADDRESS_1":"56 Brixton Hill","UPRN":10091121723,"EASTING":530745,"NORTHING":174738,"OBJECTID_1":84,"CLASS":"Secondary School"},"geometry":{"type":"Point","coordinates":[-0.11957224144601107,51.45653141585788]}},{"type":"Feature","properties":{"OBJECTID":35,"NAME":"Julian's Primary School Streatham","POSTCODE":"SW16 2RB","ACADEMY":" ","ADDRESS_1":"226 Leigham Court Road","UPRN":100000000000,"EASTING":531121,"NORTHING":171733,"OBJECTID_1":35,"CLASS":"Primary School"},"geometry":{"type":"Point","coordinates":[-0.11527574918349907,51.4294395602508]}},{"type":"Feature","properties":{"OBJECTID":81,"NAME":"Telferscot","POSTCODE":"SW12 0HW","ACADEMY":" ","ADDRESS_1":"Telferscot Road","UPRN":100000000000,"EASTING":529592,"NORTHING":173220,"OBJECTID_1":81,"CLASS":"Primary School"},"geometry":{"type":"Point","coordinates":[-0.1367134180297114,51.443154342765766]}}]}